O3B FM5                 
1 39188U 13031A   23019.15914168 -.00000011  00000+0  00000+0 0  9998
2 39188   0.0656   1.8895 0002891 301.4878  56.5927  5.00115348174845
O3B FM4                 
1 39189U 13031B   23017.21613855 -.00000008  00000+0  00000+0 0  9999
2 39189   0.0382 357.1937 0002834 304.3538  58.4236  5.00115858174679
O3B FM2                 
1 39190U 13031C   23018.50704115 -.00000010  00000+0  00000+0 0  9997
2 39190   0.0336 354.0223 0002806 306.8690  59.0792  5.00115107174782
O3B PFM                 
1 39191U 13031D   23018.93299428 -.00000011  00000+0  00000+0 0  9992
2 39191   0.0566   2.5101 0002735 295.0088  62.4512  5.00115834174829
O3B FM3                 
1 40079U 14038A   23018.78784513 -.00000010  00000+0  00000+0 0  9993
2 40079   0.0458 358.4803 0004038 264.4450  97.0267  5.00116641150731
O3B FM7                 
1 40080U 14038B   23018.73401966 -.00000010  00000+0  00000+0 0  9998
2 40080   0.0437 353.5219 0003233 339.1298  27.3293  5.00115551155574
O3B FM6                 
1 40081U 14038C   23018.56054304 -.00000010  00000+0  00000+0 0  9990
2 40081   0.0450 359.2623 0002811 298.7724  61.9350  5.00115292155511
O3B FM8                 
1 40082U 14038D   23018.61437911 -.00000010  00000+0  00000+0 0  9996
2 40082   0.0418   0.0318 0002652 296.1395  63.7995  5.00115704155633
O3B FM10                
1 40348U 14083A   23018.64056696 -.00000010  00000+0  00000+0 0  9991
2 40348   0.0523   5.4440 0002718 292.4940  62.0325  5.00115168147575
O3B FM11                
1 40349U 14083B   23018.65396797 -.00000010  00000+0  00000+0 0  9992
2 40349   0.0540   0.6597 0003151 308.9828  50.3278  5.00115369147609
O3B FM12                
1 40350U 14083C   23017.48185959 -.00000008  00000+0  00000+0 0  9997
2 40350   0.0530   0.9699 0002938 296.3791  62.6197  5.00115294147554
O3B FM9                 
1 40351U 14083D   23019.10766703 -.00000011  00000+0  00000+0 0  9995
2 40351   0.0547 359.6150 0002754 300.4128  59.9426  5.00116072147780
DIAMOND RED             
1 42783U 17036U   23018.83672641  .00028428  00000+0  91176-3 0  9992
2 42783  97.1742  57.4717 0007586 284.8583  75.1819 15.32268931309868
DIAMOND GREEN           
1 42785U 17036W   23018.83066663  .00031621  00000+0  10068-2 0  9994
2 42785  97.1748  57.5474 0007429 286.2110  73.8315 15.32481928309932
DIAMOND BLUE            
1 42786U 17036X   23019.35453094  .00024092  00000+0  76950-3 0  9998
2 42786  97.1741  58.0424 0007494 284.7552  75.2860 15.32434934309938
LEO VANTAGE 1           
1 43113U 18004C   23019.31474212  .00005575  00000+0  44665-3 0  9993
2 43113  99.2416 127.5152 0396489 262.3713  93.2292 14.54957008255610
O3B FM15                
1 43231U 18024A   23018.57393052 -.00000010  00000+0  00000+0 0  9996
2 43231   0.0517   9.1960 0003068 288.3195  62.4513  5.00116221 88708
O3B FM16                
1 43232U 18024B   23018.62736492 -.00000010  00000+0  00000+0 0  9992
2 43232   0.0524  13.7280 0003078 284.5333  61.7056  5.00116001 88638
O3B FM14                
1 43233U 18024C   23019.06692582 -.00000011  00000+0  00000+0 0  9994
2 43233   0.0521  15.3873 0003047 286.6932  57.8876  5.00115439 88894
O3B FM13                
1 43234U 18024D   23019.12047053 -.00000011  00000+0  00000+0 0  9999
2 43234   0.0672 359.9356 0003867 295.5110  64.5111  5.00114987 88908
O3B FM20                
1 44112U 19020A   23018.29404774 -.00000010  00000+0  00000+0 0  9995
2 44112   0.0515   5.4523 0003421 294.6744  59.8376  5.00115501 69247
O3B FM19                
1 44113U 19020B   23018.52080977 -.00000010  00000+0  00000+0 0  9997
2 44113   0.0718  11.3873 0002865 315.3874  33.2054  5.00115054 69122
O3B FM17                
1 44114U 19020C   23018.60120623 -.00000010  00000+0  00000+0 0  9990
2 44114   0.0361  22.1098 0003182 274.6091  63.2465  5.00115696 69218
O3B FM18                
1 44115U 19020D   23018.54768576 -.00000010  00000+0  00000+0 0  9999
2 44115   0.0520   5.2860 0002953 291.3369  63.3450  5.00115829 69330
SALSAT                  
1 46495U 20068K   23018.84190516  .00007846  00000+0  54397-3 0  9997
2 46495  97.7544 325.6342 0014114 267.2109  92.7502 15.05815215126589
